APRIZESAT 2             
1 28366U 04025A   26202.72692775  .00000161  00000+0  62587-4 0  9992
2 28366  98.1050   6.7575 0106347 145.2623 215.5570 14.38049770156600
SAUDICOMSAT 1           
1 28369U 04025D   26203.28270967  .00000242  00000+0  66682-4 0  9992
2 28369  98.5780 214.3628 0030846 276.3211  83.4472 14.55496975169230
SAUDICOMSAT 2           
1 28370U 04025E   26203.04234401  .00000218  00000+0  67793-4 0  9998
2 28370  98.6644 216.2742 0056060 153.0520 207.3604 14.49997092165150
APRIZESAT 1             
1 28372U 04025G   26203.23754889  .00000193  00000+0  59596-4 0  9992
2 28372  98.6311 214.9179 0045513  49.8168 310.6997 14.51794854166993
NANOSAT-1               
1 28493U 04049B   26203.32089292  .00000788  00000+0  11093-3 0  9990
2 28493  98.2319 340.8507 0004302 162.5350 197.6010 14.80220471160648
SAUDICOMSAT 7           
1 31119U 07012C   26203.19211238  .00000474  00000+0  93773-4 0  9992
2 31119  98.3805 178.0452 0057024  86.8627 273.9099 14.66142148 27568
SAUDICOMSAT 6           
1 31121U 07012E   26203.18612849  .00000287  00000+0  64822-4 0  9992
2 31121  98.4123 171.3598 0070848 217.0460 142.5838 14.62588401 25308
SAUDICOMSAT 5           
1 31124U 07012H   26203.18462698  .00000611  00000+0  11350-3 0  9998
2 31124  98.3516 178.7779 0047780  17.1431 343.1374 14.68199163 28737
SAUDICOMSAT 3           
1 31125U 07012J   26202.94832432  .00000631  00000+0  11125-3 0  9991
2 31125  98.3171 179.0826 0037889 303.3367  56.4213 14.70757037 29931
SAUDICOMSAT 4           
1 31127U 07012L   26202.86238276  .00000390  00000+0  81232-4 0  9999
2 31127  98.4009 176.1450 0063999 149.0413 211.4586 14.64539859 26366
APRIZESAT 4             
1 35684U 09041D   26203.18625292  .00000598  00000+0  77922-4 0  9990
2 35684  98.1397 279.2025 0042681 206.4291 153.4745 14.83920938916559
APRIZESAT 3             
1 35686U 09041F   26203.14026862  .00000412  00000+0  41161-4 0  9997
2 35686  98.2106 358.0494 0060681 312.6036  47.0074 14.96319841921607
S-NET D                 
1 43186U 18014G   26203.16148906  .00004354  00000+0  22398-3 0  9996
2 43186  97.5322 107.7346 0006227 254.1298 105.9249 15.16960344464067
S-NET B                 
1 43187U 18014H   26202.97573895  .00004390  00000+0  22596-3 0  9994
2 43187  97.5327 107.5377 0006913 249.5225 110.5266 15.16928957464037
S-NET A                 
1 43188U 18014J   26203.16017461  .00004392  00000+0  22579-3 0  9992
2 43188  97.5337 107.9365 0006788 249.4406 110.6099 15.16968606464063
S-NET C                 
1 43189U 18014K   26203.04577037  .00004405  00000+0  22674-3 0  9991
2 43189  97.5355 107.9028 0008253 241.5298 118.5104 15.16920683462594
SALSAT                  
1 46495U 20068K   26203.00354601  .00007429  00000+0  25648-3 0  9995
2 46495  97.8867 208.2016 0009924 169.3819 190.7631 15.30238203320688
OOV-CUBE (TUBSAT-30)    
1 60240U 24128F   26203.25313467  .00001541  00000+0  12811-3 0  9999
2 60240  61.9942 103.2884 0040191 141.6330 218.7632 15.02894414111385
LPNTSAT-001 (IOD-1)     
1 68408U 26065A   26203.13088456  .00001937  00000+0  96443-4 0  9992
2 68408  97.3972  82.8961 0014800 239.6554 120.3217 15.18692282 17565
CHUANG XIN 26 (CX-26)   
1 69972U 26158A   26202.57840488 -.00000166  00000+0 -23727-5 0  9991
2 69972  49.9828 253.4795 0004955 321.1216  38.9340 14.25124333  1612
